[{"OBJECT_NAME":"STARLINK-3832","OBJECT_ID":"2022-052BA","EPOCH":"2026-03-09T17:27:42.180192","MEAN_MOTION":15.08839779,"ECCENTRICITY":0.00014736,"INCLINATION":53.2169,"RA_OF_ASC_NODE":258.9908,"ARG_OF_PERICENTER":82.0163,"MEAN_ANOMALY":278.0997,"EPHEMERIS_TYPE":0,"CLASSIFICATION_TYPE":"U","NORAD_CAT_ID":52646,"ELEMENT_SET_NO":999,"REV_AT_EPOCH":21114,"BSTAR":0.00013744745,"MEAN_MOTION_DOT":1.9e-5,"MEAN_MOTION_DDOT":0},{"OBJECT_NAME":"UNKNOWN","OBJECT_ID":"","EPOCH":"2026-03-09T06:09:07.097760","MEAN_MOTION":14.23111444,"ECCENTRICITY":0.0420074,"INCLINATION":65.7569,"RA_OF_ASC_NODE":3.5198,"ARG_OF_PERICENTER":27.821,"MEAN_ANOMALY":334.4666,"EPHEMERIS_TYPE":0,"CLASSIFICATION_TYPE":"U","NORAD_CAT_ID":87271,"ELEMENT_SET_NO":999,"REV_AT_EPOCH":62467,"BSTAR":0.002777,"MEAN_MOTION_DOT":0.00015701,"MEAN_MOTION_DDOT":0}]
